{
  "fetched_at": "2026-06-09T01:58:26.376871+00:00",
  "satellites": {
    "57166": {
      "name": "Meteor M2-3",
      "tle_line1": "1 57166U 23091A   26159.87778037  .00000000  00000+0  18879-4 0  9996",
      "tle_line2": "2 57166  98.6085 215.0258 0003880 177.5354 182.5845 14.24046112153330"
    },
    "59051": {
      "name": "Meteor M2-4",
      "tle_line1": "1 59051U 24039A   26159.88307012  .00000024  00000+0  30489-4 0  9993",
      "tle_line2": "2 59051  98.7007 119.2857 0006801 184.7267 175.3848 14.22428772118089"
    },
    "38771": {
      "name": "MetOp-B",
      "tle_line1": "1 38771U 12049A   26159.81305135  .00000095  00000+0  63500-4 0  9992",
      "tle_line2": "2 38771  98.6507 211.4790 0002722  39.1701 320.9673 14.21430451712073"
    },
    "43689": {
      "name": "MetOp-C",
      "tle_line1": "1 43689U 18087A   26159.76232730  .00000100  00000+0  65340-4 0  9999",
      "tle_line2": "2 43689  98.6646 219.5196 0001449 138.7732 221.3555 14.21509928393631"
    },
    "60543": {
      "name": "Arctic Weather Satellite",
      "tle_line1": "1 60543U 24149CD  26159.75809793  .00000918  00000+0  10133-3 0  9997",
      "tle_line2": "2 60543  97.6803 230.4645 0003309 120.7583 239.3961 14.89793396 98041"
    }
  }
}